XRISM                   
1 57800U 23137A   23335.98201753  .00008344  00000+0  66909-3 0  9998
2 57800  31.0010 191.7755 0009640  45.9518 314.1910 14.98802168 12901
